IRIDIUM 126             
1 42809U 17039G   26012.84392267  .00000113  00000+0  33407-4 0  9990
2 42809  86.3939  58.5778 0002357  98.6366 261.5097 14.34218340447687
IRIDIUM 124             
1 42810U 17039H   26012.68199160  .00000382  00000+0  10752-3 0  9996
2 42810  86.4502 355.3681 0002516  87.1716 272.9773 14.43282256452686
IRIDIUM 128             
1 42811U 17039J   26012.76489314  .00000011  00000+0 -30662-5 0  9993
2 42811  86.3954  90.1518 0002200  89.4710 270.6738 14.34217751447700
IRIDIUM 121             
1 42812U 17039K   26012.65364523  .00000054  00000+0  12064-4 0  9997
2 42812  86.3938  58.6838 0002140  91.1268 269.0173 14.34217972447539
IRIDIUM 133             
1 42955U 17061A   26012.44775700  .00000234  00000+0  76625-4 0  9993
2 42955  86.3958  90.3984 0002243  94.9472 265.1980 14.34220582432455
IRIDIUM 100             
1 42956U 17061B   26012.72049300  .00000171  00000+0  54075-4 0  9990
2 42956  86.3955  90.2066 0002190  96.1331 264.0114 14.34218874432494
IRIDIUM 122             
1 42957U 17061C   26012.75855023  .00000102  00000+0  29457-4 0  9991
2 42957  86.3956  90.1905 0002289  98.9082 261.2373 14.34217988432502
IRIDIUM 129             
1 42958U 17061D   26012.71415104  .00000007  00000+0 -44264-5 0  9999
2 42958  86.3960  90.2746 0001880 105.4873 254.6530 14.34217852432512
